{
    "links": {
        "self": "http://www.neowsapp.com/rest/v1/neo/3836295?api_key=iIulBulltgU6a56xZRHN4H3l9WmuAYTsLGpBGhQ2"
    },
    "id": "3836295",
    "neo_reference_id": "3836295",
    "name": "(2018 WD1)",
    "designation": "2018 WD1",
    "nasa_jpl_url": "http://ssd.jpl.nasa.gov/sbdb.cgi?sstr=3836295",
    "absolute_magnitude_h": 25.4,
    "estimated_diameter": {
        "kilometers": {
            "estimated_diameter_min": 0.022108281,
            "estimated_diameter_max": 0.0494356193
        },
        "meters": {
            "estimated_diameter_min": 22.1082810359,
            "estimated_diameter_max": 49.435619262
        },
        "miles": {
            "estimated_diameter_min": 0.0137374447,
            "estimated_diameter_max": 0.0307178602
        },
        "feet": {
            "estimated_diameter_min": 72.5337327539,
            "estimated_diameter_max": 162.1903570994
        }
    },
    "is_potentially_hazardous_asteroid": false,
    "close_approach_data": [
        {
            "close_approach_date": "1966-11-19",
            "close_approach_date_full": "1966-Nov-19 02:05",
            "epoch_date_close_approach": -98402100000,
            "relative_velocity": {
                "kilometers_per_second": "7.704394867",
                "kilometers_per_hour": "27735.8215210577",
                "miles_per_hour": "17233.9608779039"
            },
            "miss_distance": {
                "astronomical": "0.0579721267",
                "lunar": "22.5511572863",
                "kilometers": "8672506.673690129",
                "miles": "5388845.7629326202"
            },
            "orbiting_body": "Earth"
        },
        {
            "close_approach_date": "1971-06-18",
            "close_approach_date_full": "1971-Jun-18 21:44",
            "epoch_date_close_approach": 46129440000,
            "relative_velocity": {
                "kilometers_per_second": "7.7726840533",
                "kilometers_per_hour": "27981.6625918009",
                "miles_per_hour": "17386.7169587776"
            },
            "miss_distance": {
                "astronomical": "0.3082991254",
                "lunar": "119.9283597806",
                "kilometers": "46120892.482702898",
                "miles": "28658193.6906520724"
            },
            "orbiting_body": "Earth"
        },
        {
            "close_approach_date": "1971-12-09",
            "close_approach_date_full": "1971-Dec-09 18:45",
            "epoch_date_close_approach": 61152300000,
            "relative_velocity": {
                "kilometers_per_second": "15.4688443083",
                "kilometers_per_hour": "55687.8395099113",
                "miles_per_hour": "34602.2578332557"
            },
            "miss_distance": {
                "astronomical": "0.4334492635",
                "lunar": "168.6117635015",
                "kilometers": "64843086.572668745",
                "miles": "40291625.648748881"
            },
            "orbiting_body": "Earth"
        },
        {
            "close_approach_date": "2018-11-24",
            "close_approach_date_full": "2018-Nov-24 08:18",
            "epoch_date_close_approach": 1543047480000,
            "relative_velocity": {
                "kilometers_per_second": "8.0992278322",
                "kilometers_per_hour": "29157.2201960359",
                "miles_per_hour": "18117.1627379202"
            },
            "miss_distance": {
                "astronomical": "0.0707999927",
                "lunar": "27.5411971603",
                "kilometers": "10591528.103935549",
                "miles": "6581270.3862226162"
            },
            "orbiting_body": "Earth"
        },
        {
            "close_approach_date": "2065-11-16",
            "close_approach_date_full": "2065-Nov-16 15:40",
            "epoch_date_close_approach": 3025611600000,
            "relative_velocity": {
                "kilometers_per_second": "7.9926067693",
                "kilometers_per_hour": "28773.3843695865",
                "miles_per_hour": "17878.6620823133"
            },
            "miss_distance": {
                "astronomical": "0.102030386",
                "lunar": "39.689820154",
                "kilometers": "15263528.42087782",
                "miles": "9484316.767121116"
            },
            "orbiting_body": "Earth"
        }
    ],
    "orbital_data": {
        "orbit_id": "3",
        "orbit_determination_date": "2018-12-01 06:24:20",
        "first_observation_date": "2018-11-24",
        "last_observation_date": "2018-11-28",
        "data_arc_in_days": 4,
        "observations_used": 34,
        "orbit_uncertainty": "8",
        "minimum_orbit_intersection": ".0271397",
        "jupiter_tisserand_invariant": "5.352",
        "epoch_osculation": "2458449.5",
        "eccentricity": ".1345151091350055",
        "semi_major_axis": "1.172022927285038",
        "inclination": "14.0707123205441",
        "ascending_node_longitude": "59.38675083100293",
        "orbital_period": "463.4496815908857",
        "perihelion_distance": "1.014368135312562",
        "perihelion_argument": "354.284509454802",
        "aphelion_distance": "1.329677719257513",
        "perihelion_time": "2458442.659927658469",
        "mean_anomaly": "5.313254363447569",
        "mean_motion": ".7767833581506118",
        "equinox": "J2000",
        "orbit_class": {
            "orbit_class_type": "APO",
            "orbit_class_description": "Near-Earth asteroid orbits which cross the Earth’s orbit similar to that of 1862 Apollo",
            "orbit_class_range": "a (semi-major axis) > 1.0 AU; q (perihelion) < 1.017 AU"
        }
    },
    "is_sentry_object": false
}